KUIPER-00247            
1 67152U 25301V   26063.47158323  .00027451  00000+0  76172-3 0  9996
2 67152  51.8622  91.1831 0014067  39.5463 320.6547 15.36618717 12924
KUIPER-00248            
1 67153U 25301W   26063.37450806  .00052930  00000+0  14283-2 0  9991
2 67153  51.8664  91.3286 0011213  25.4287 334.7249 15.37203155 13085
KUIPER-00249            
1 67154U 25301X   26063.47793272  .00056323  00000+0  14860-2 0  9991
2 67154  51.8649  90.5094 0010732  26.3705 333.7826 15.37877532 12936
KUIPER-00250            
1 67155U 25301Y   26063.41668981 -.00888281  00000+0 -75943-1 0  9990
2 67155  51.9194  93.8776 0009246  33.4551 319.6134 15.00106965  5721
KUIPER-00251            
1 67156U 25301Z   26063.29942933  .00026846  00000+0  72800-3 0  9999
2 67156  51.8649  91.5656 0011188  28.0542 332.1045 15.37379811 13098
KUIPER-00252            
1 67157U 25301AA  26063.38196848  .00070840  00000+0  19070-2 0  9998
2 67157  51.8648  91.3597 0012845  33.3013 326.8779 15.37128851 12913
KUIPER-00261            
1 67158U 25301AB  26063.41668981 -.02018761  00000+0 -18653+0 0  9996
2 67158  51.8945  94.1463 0011674  40.5326  61.1062 14.97664102  5132
KUIPER-00265            
1 67159U 25301AC  26063.33627912 -.00002335  00000+0 -27742-3 0  9998
2 67159  51.9025 109.2853 0001170  24.0044 336.0972 14.79931484 12691
KUIPER-00159            
1 67764U 26030A   26063.49108960  .00034185  00000+0  98235-3 0  9995
2 67764  51.8842 244.2318 0004468  31.3223 328.8028 15.35495952  4294
KUIPER-00160            
1 67765U 26030B   26063.49219392  .00041904  00000+0  12062-2 0  9998
2 67765  51.8809 244.2319 0004746  42.1444 317.9906 15.35345775  4294
KUIPER-00177            
1 67766U 26030C   26063.48055747  .00047042  00000+0  13120-2 0  9995
2 67766  51.8828 244.1618 0001077   8.2848 351.8156 15.36288882  4292
KUIPER-00178            
1 67767U 26030D   26063.49387923  .00051815  00000+0  14890-2 0  9999
2 67767  51.8830 244.2493 0006223  31.1459 328.9895 15.35295266  4297
KUIPER-00180            
1 67768U 26030E   26063.52252861  .00065771  00000+0  20773-2 0  9999
2 67768  51.8795 244.4256 0014618  52.7518 307.4797 15.32113555  4299
KUIPER-00197            
1 67769U 26030F   26063.48262820  .00054465  00000+0  15219-2 0  9998
2 67769  51.8830 244.1766 0001418  48.3821 311.7287 15.36163588  4292
KUIPER-00198            
1 67770U 26030G   26063.48727747  .00033346  00000+0  94961-3 0  9991
2 67770  51.8808 244.2004 0003013  34.1858 325.9321 15.35796409  4290
KUIPER-00199            
1 67771U 26030H   26063.50805205  .00060687  00000+0  18027-2 0  9997
2 67771  51.8802 244.3326 0010142  46.7813 313.4018 15.34151599  4293
KUIPER-00200            
1 67772U 26030J   26063.47469882  .00036128  00000+0  99506-3 0  9996
2 67772  51.8805 244.1209 0001376 213.3954 146.6946 15.36800201  4291
